<?xml version="1.0" encoding="UTF-8"?>
<kml xmlns="http://www.opengis.net/kml/2.2" xmlns:wpml="http://www.dji.com/wpmz/1.0.2">
  <Document>
    <wpml:author>Forensic GCS Operator</wpml:author>
    <wpml:createTime>1726221600000</wpml:createTime>
    <wpml:missionConfig>
      <wpml:flyToWaylineMode>safely</wpml:flyToWaylineMode>
      <wpml:finishAction>goHome</wpml:finishAction>
      <wpml:exitOnRCLost>executeLostAction</wpml:exitOnRCLost>
      <wpml:takeOffSecurityHeight>20.0</wpml:takeOffSecurityHeight>
      <wpml:globalTransitionalSpeed>12.0</wpml:globalTransitionalSpeed>
      <wpml:droneInfo>
        <wpml:droneEnumValue>67</wpml:droneEnumValue>
        <wpml:droneSubEnumValue>0</wpml:droneSubEnumValue>
      </wpml:droneInfo>
    </wpml:missionConfig>
    <Folder>
      <wpml:templateType>waypoint</wpml:templateType>
      <wpml:waylineId>0</wpml:waylineId>
      <Placemark>
        <Point>
          <coordinates>72.9133,19.1334,10.5</coordinates>
        </Point>
        <wpml:index>0</wpml:index>
        <wpml:executeHeight>10.5</wpml:executeHeight>
        <wpml:waypointSpeed>2.5</wpml:waypointSpeed>
      </Placemark>
      <Placemark>
        <Point>
          <coordinates>72.9145,19.1348,45.2</coordinates>
        </Point>
        <wpml:index>1</wpml:index>
        <wpml:executeHeight>45.2</wpml:executeHeight>
        <wpml:waypointSpeed>8.0</wpml:waypointSpeed>
      </Placemark>
      <Placemark>
        <Point>
          <coordinates>72.9160,19.1365,95.5</coordinates>
        </Point>
        <wpml:index>2</wpml:index>
        <wpml:executeHeight>95.5</wpml:executeHeight>
        <wpml:waypointSpeed>10.0</wpml:waypointSpeed>
      </Placemark>
      <Placemark>
        <Point>
          <coordinates>72.9168,19.1372,125.0</coordinates>
        </Point>
        <wpml:index>3</wpml:index>
        <wpml:executeHeight>125.0</wpml:executeHeight>
        <wpml:waypointSpeed>11.0</wpml:waypointSpeed>
      </Placemark>
    </Folder>
  </Document>
</kml>
